*******************************************************************************
Ephemeris / WWW_USER Fri Mar  7 11:06:13 2025 Pasadena, USA      / Horizons    
*******************************************************************************
Target body name: (2018 US2)                      {source: JPL#14}
Center body name: Earth (399)                     {source: DE441}
Center-site name: Mauna Kea
*******************************************************************************
Start time      : A.D. 2019-Jan-05 04:06:00.0000 UT      
Stop  time      : A.D. 2019-Jan-05 16:47:00.0000 UT      
Step-size       : 1 minutes
*******************************************************************************
Target pole/equ : undefined
Target radii    : undefined                                                    
Center geodetic : 204.5278, 19.8260847, 4.21024   {E-lon(deg),Lat(deg),Alt(km)}
Center cylindric: 204.5278, 6006.35451, 2151.0229 {E-lon(deg),Dxy(km),Dz(km)}
Center pole/equ : ITRF93                          {East-longitude positive}
Center radii    : 6378.137, 6378.137, 6356.752 km {Equator_a, b, pole_c}       
Target primary  : Sun
Vis. interferer : MOON (R_eq= 1737.400) km        {source: DE441}
Rel. light bend : Sun                             {source: DE441}
Rel. lght bnd GM: 1.3271E+11 km^3/s^2                                          
Small-body perts: Yes                             {source: SB441-N16}
Atmos refraction: NO (AIRLESS)
RA format       : HMS
Time format     : CAL 
Calendar mode   : Mixed Julian/Gregorian
RTS-only print  : NO       
EOP file        : eop.250306.p250602                                           
EOP coverage    : DATA-BASED 1962-JAN-20 TO 2025-MAR-06. PREDICTS-> 2025-JUN-01
Units conversion: 1 au= 149597870.700 km, c= 299792.458 km/s, 1 day= 86400.0 s 
Table cut-offs 1: Elevation (-90.0deg=NO ),Airmass (>38.000=NO), Daylight (YES)
Table cut-offs 2: Solar elongation (  0.0,180.0=NO ),Local Hour Angle( 0.0=NO )
Table cut-offs 3: RA/DEC angular rate (     0.0=NO )                           
*******************************************************************************
Initial IAU76/J2000 heliocentric ecliptic osculating elements (au, days, deg.):
  EPOCH=  2458424.5 ! 2018-Nov-02.00 (TDB)         Residual RMS= .2503         
   EC= .6580934192644969   QR= 1.019516546973241   TP= 2458405.4003266119      
   OM= 225.9089147719754   W=  151.3321843630243   IN= 7.044798776353047       
  Equivalent ICRF heliocentric cartesian coordinates (au, au/d):
   X= 8.026033061055595E-01  Y= 6.200562709856074E-01  Z= 2.826199844552283E-01
  VX=-1.102263624249032E-02 VY= 1.780430100977025E-02 VZ= 4.937770740848229E-03
Asteroid physical parameters (km, seconds, rotational period in hours):        
   GM= n.a.                RAD= n.a.               ROTPER= n.a.                
   H= 24.88                G= .150                 B-V= n.a.                   
                           ALBEDO= n.a.            STYP= n.a.                  
*******************************************************************************
 Date__(UT)__HR:MN     R.A._________(ICRF)_________DEC
******************************************************
$$SOE
 2019-Jan-05 14:21     05 12 09.005883 +08 27 09.89655
 2019-Jan-05 14:22     05 12 09.024599 +08 27 10.15037
 2019-Jan-05 14:23     05 12 09.043336 +08 27 10.40419
 2019-Jan-05 14:24     05 12 09.062092 +08 27 10.65801
 2019-Jan-05 14:25     05 12 09.080868 +08 27 10.91183
 2019-Jan-05 14:26     05 12 09.099663 +08 27 11.16565
 2019-Jan-05 14:27     05 12 09.118479 +08 27 11.41948
 2019-Jan-05 14:28     05 12 09.137314 +08 27 11.67330
 2019-Jan-05 14:29     05 12 09.156169 +08 27 11.92713
 2019-Jan-05 14:30     05 12 09.175044 +08 27 12.18096
 2019-Jan-05 14:31     05 12 09.193939 +08 27 12.43479
 2019-Jan-05 14:32     05 12 09.212853 +08 27 12.68863
 2019-Jan-05 14:33     05 12 09.231787 +08 27 12.94246
 2019-Jan-05 14:34     05 12 09.250741 +08 27 13.19630
 2019-Jan-05 14:35     05 12 09.269715 +08 27 13.45015
 2019-Jan-05 14:36     05 12 09.288709 +08 27 13.70399
 2019-Jan-05 14:37     05 12 09.307723 +08 27 13.95784
 2019-Jan-05 14:38     05 12 09.326756 +08 27 14.21169
 2019-Jan-05 14:39     05 12 09.345809 +08 27 14.46555
 2019-Jan-05 14:40     05 12 09.364882 +08 27 14.71941
 2019-Jan-05 14:41     05 12 09.383975 +08 27 14.97327
 2019-Jan-05 14:42     05 12 09.403087 +08 27 15.22714
 2019-Jan-05 14:43     05 12 09.422220 +08 27 15.48101
 2019-Jan-05 14:44     05 12 09.441372 +08 27 15.73489
 2019-Jan-05 14:45     05 12 09.460544 +08 27 15.98877
 2019-Jan-05 14:46     05 12 09.479735 +08 27 16.24266
 2019-Jan-05 14:47     05 12 09.498947 +08 27 16.49655
 2019-Jan-05 14:48     05 12 09.518178 +08 27 16.75045
 2019-Jan-05 14:49     05 12 09.537429 +08 27 17.00435
 2019-Jan-05 14:50     05 12 09.556700 +08 27 17.25826
 2019-Jan-05 14:51     05 12 09.575990 +08 27 17.51217
 2019-Jan-05 14:52     05 12 09.595300 +08 27 17.76610
 2019-Jan-05 14:53     05 12 09.614630 +08 27 18.02002
 2019-Jan-05 14:54     05 12 09.633980 +08 27 18.27396
 2019-Jan-05 14:55     05 12 09.653350 +08 27 18.52789
 2019-Jan-05 14:56     05 12 09.672739 +08 27 18.78184
 2019-Jan-05 14:57     05 12 09.692148 +08 27 19.03579
 2019-Jan-05 14:58     05 12 09.711576 +08 27 19.28976
 2019-Jan-05 14:59     05 12 09.731024 +08 27 19.54372
 2019-Jan-05 15:00  s  05 12 09.750492 +08 27 19.79770
 2019-Jan-05 15:01     05 12 09.769980 +08 27 20.05168
 2019-Jan-05 15:02     05 12 09.789487 +08 27 20.30567
 2019-Jan-05 15:03     05 12 09.809014 +08 27 20.55967
 2019-Jan-05 15:04     05 12 09.828561 +08 27 20.81368
 2019-Jan-05 15:05     05 12 09.848127 +08 27 21.06770
 2019-Jan-05 15:06     05 12 09.867713 +08 27 21.32172
 2019-Jan-05 15:07     05 12 09.887319 +08 27 21.57575
 2019-Jan-05 15:08     05 12 09.906944 +08 27 21.82980
 2019-Jan-05 15:09     05 12 09.926588 +08 27 22.08385
 2019-Jan-05 15:10     05 12 09.946252 +08 27 22.33791
 2019-Jan-05 15:11     05 12 09.965936 +08 27 22.59198
 2019-Jan-05 15:12     05 12 09.985640 +08 27 22.84606
 2019-Jan-05 15:13     05 12 10.005362 +08 27 23.10015
 2019-Jan-05 15:14     05 12 10.025105 +08 27 23.35425
 2019-Jan-05 15:15     05 12 10.044867 +08 27 23.60836
 2019-Jan-05 15:16     05 12 10.064648 +08 27 23.86248
 2019-Jan-05 15:17     05 12 10.084449 +08 27 24.11661
 2019-Jan-05 15:18     05 12 10.104269 +08 27 24.37075
 2019-Jan-05 15:19     05 12 10.124109 +08 27 24.62490
 2019-Jan-05 15:20     05 12 10.143968 +08 27 24.87907
 2019-Jan-05 15:21     05 12 10.163847 +08 27 25.13324
 2019-Jan-05 15:22     05 12 10.183745 +08 27 25.38743
 2019-Jan-05 15:23     05 12 10.203662 +08 27 25.64163
 2019-Jan-05 15:24     05 12 10.223599 +08 27 25.89584
 2019-Jan-05 15:25     05 12 10.243555 +08 27 26.15006
 2019-Jan-05 15:26     05 12 10.263530 +08 27 26.40430
 2019-Jan-05 15:27     05 12 10.283524 +08 27 26.65854
 2019-Jan-05 15:28     05 12 10.303538 +08 27 26.91280
 2019-Jan-05 15:29     05 12 10.323572 +08 27 27.16707
 2019-Jan-05 15:30     05 12 10.343624 +08 27 27.42136
 2019-Jan-05 15:31     05 12 10.363696 +08 27 27.67566
 2019-Jan-05 15:32     05 12 10.383786 +08 27 27.92997
 2019-Jan-05 15:33     05 12 10.403896 +08 27 28.18429
 2019-Jan-05 15:34     05 12 10.424025 +08 27 28.43863
 2019-Jan-05 15:35     05 12 10.444174 +08 27 28.69298
 2019-Jan-05 15:36     05 12 10.464341 +08 27 28.94735
 2019-Jan-05 15:37     05 12 10.484528 +08 27 29.20173
 2019-Jan-05 15:38     05 12 10.504733 +08 27 29.45613
 2019-Jan-05 15:39     05 12 10.524958 +08 27 29.71054
 2019-Jan-05 15:40 A   05 12 10.545201 +08 27 29.96496
 2019-Jan-05 15:41 A   05 12 10.565464 +08 27 30.21940
 2019-Jan-05 15:42 A   05 12 10.585745 +08 27 30.47385
 2019-Jan-05 15:43 A   05 12 10.606046 +08 27 30.72832
 2019-Jan-05 15:44 A   05 12 10.626365 +08 27 30.98281
 2019-Jan-05 15:45 A   05 12 10.646704 +08 27 31.23731
 2019-Jan-05 15:46 A   05 12 10.667061 +08 27 31.49182
 2019-Jan-05 15:47 A   05 12 10.687437 +08 27 31.74635
 2019-Jan-05 15:48 A   05 12 10.707832 +08 27 32.00090
 2019-Jan-05 15:49 A   05 12 10.728245 +08 27 32.25547
 2019-Jan-05 15:50 A   05 12 10.748677 +08 27 32.51005
 2019-Jan-05 15:51 A   05 12 10.769129 +08 27 32.76464
 2019-Jan-05 15:52 A   05 12 10.789598 +08 27 33.01926
 2019-Jan-05 15:53 A   05 12 10.810087 +08 27 33.27389
 2019-Jan-05 15:54 A   05 12 10.830594 +08 27 33.52854
 2019-Jan-05 15:55 A   05 12 10.851120 +08 27 33.78320
 2019-Jan-05 15:56 A   05 12 10.871664 +08 27 34.03788
 2019-Jan-05 15:57 A   05 12 10.892227 +08 27 34.29258
 2019-Jan-05 15:58 A   05 12 10.912808 +08 27 34.54730
 2019-Jan-05 15:59 A   05 12 10.933408 +08 27 34.80204
 2019-Jan-05 16:00 A   05 12 10.954027 +08 27 35.05679
 2019-Jan-05 16:01 A   05 12 10.974664 +08 27 35.31156
 2019-Jan-05 16:02 A   05 12 10.995319 +08 27 35.56636
 2019-Jan-05 16:03 A   05 12 11.015993 +08 27 35.82117
 2019-Jan-05 16:04 A   05 12 11.036685 +08 27 36.07599
 2019-Jan-05 16:05 A   05 12 11.057395 +08 27 36.33084
 2019-Jan-05 16:06 A   05 12 11.078123 +08 27 36.58571
 2019-Jan-05 16:07 N   05 12 11.098870 +08 27 36.84059
 2019-Jan-05 16:08 N   05 12 11.119635 +08 27 37.09550
 2019-Jan-05 16:09 N   05 12 11.140419 +08 27 37.35042
 2019-Jan-05 16:10 N   05 12 11.161220 +08 27 37.60537
 2019-Jan-05 16:11 N   05 12 11.182039 +08 27 37.86033
 2019-Jan-05 16:12 N   05 12 11.202877 +08 27 38.11532
 2019-Jan-05 16:13 N   05 12 11.223733 +08 27 38.37032
 2019-Jan-05 16:14 N   05 12 11.244606 +08 27 38.62535
 2019-Jan-05 16:15 N   05 12 11.265498 +08 27 38.88040
 2019-Jan-05 16:16 N   05 12 11.286407 +08 27 39.13546
 2019-Jan-05 16:17 N   05 12 11.307335 +08 27 39.39055
 2019-Jan-05 16:18 N   05 12 11.328280 +08 27 39.64566
 2019-Jan-05 16:19 N   05 12 11.349243 +08 27 39.90079
 2019-Jan-05 16:20 N   05 12 11.370224 +08 27 40.15595
 2019-Jan-05 16:21 N   05 12 11.391222 +08 27 40.41112
 2019-Jan-05 16:22 N   05 12 11.412239 +08 27 40.66632
 2019-Jan-05 16:23 N   05 12 11.433273 +08 27 40.92153
